NORAD_CAT_ID,OBJECT_NAME,OBJECT_TYPE,EPOCH,MEAN_MOTION,ECCENTRICITY,INCLINATION,RA_OF_ASC_NODE,ARG_OF_PERICENTER,MEAN_ANOMALY,BSTAR,MEAN_MOTION_DOT,MEAN_MOTION_DDOT,TLE_LINE0,TLE_LINE1,TLE_LINE2,SEMIMAJOR_AXIS,PERIOD,APOGEE,PERIGEE,DECAYED
52281.0,STARLINK-3779,PAYLOAD,2022-06-27 22:00:00,15.09180558,0.0002257,53.2174,52.9703,40.9144,23.2059,-0.026788,-0.00406983,0.0,0 STARLINK-3779,1 52281U 22041W   22178.91667824 -.00406983  00000-0 -26788-1 0  9994,2 52281  53.2174  52.9703 0002257  40.9144  23.2059 15.09180558 11674,6916.84,95.416,540.266,537.144,0.0
52281.0,STARLINK-3779,PAYLOAD,2022-06-28 06:00:00,15.0883773,0.000156,53.2173,51.4732,55.1265,20.8267,-0.00010394,-1.942e-05,0.0,0 STARLINK-3779,1 52281U 22041W   22179.25001157 -.00001942  00000-0 -10394-3 0  9997,2 52281  53.2173  51.4732 0001560  55.1265  20.8267 15.08837730 11727,6917.887,95.438,540.832,538.673,0.0
52281.0,STARLINK-3779,PAYLOAD,2022-06-28 14:00:01,15.08828993,0.0001512,53.2166,49.9673,45.4973,41.9778,0.0027356,0.00043505,0.0,0 STARLINK-3779,1 52281U 22041W   22179.58334491  .00043505  00000-0  27356-2 0  9997,2 52281  53.2166  49.9673 0001512  45.4973  41.9778 15.08828993 11777,6917.9140000000025,95.438,540.825,538.7330000000002,0.0
52281.0,STARLINK-3779,PAYLOAD,2022-06-28 22:00:00,15.088534,0.0001735,53.2166,48.4727,42.0852,56.9872,-0.00062294,-0.00010192,0.0,0 STARLINK-3779,1 52281U 22041W   22179.91667824 -.00010192  00000-0 -62294-3 0  9992,2 52281  53.2166  48.4727 0001735  42.0852  56.9872 15.08853400  1307,6917.839,95.437,540.905,538.504,0.0
52281.0,STARLINK-3779,PAYLOAD,2022-06-29 14:00:01,15.08826388,0.0001706999999999,53.2169,45.478,49.6757,72.6167,0.0012178,0.00019139,0.0,0 STARLINK-3779,1 52281U 22041W   22180.58334491  .00019139  00000-0  12178-2 0  9991,2 52281  53.2169  45.4780 0001707  49.6757  72.6167 15.08826388  1309,6917.922,95.438,540.9680000000002,538.606,0.0
52281.0,STARLINK-3779,PAYLOAD,2022-06-29 22:00:00,15.08834812,0.0001923,53.2168,43.9834,46.1326,87.7474,-0.00035404,-5.918e-05,0.0,0 STARLINK-3779,1 52281U 22041W   22180.91667824 -.00005918  00000-0 -35404-3 0  9997,2 52281  53.2168  43.9834 0001923  46.1326  87.7474 15.08834812 11978,6917.896,95.438,541.092,538.431,0.0
52281.0,STARLINK-3779,PAYLOAD,2022-06-30 14:00:01,15.08834231,0.0001809,53.2173,40.9888,52.2447,104.8128,0.0017347,0.00027423,0.0,0 STARLINK-3779,1 52281U 22041W   22181.58334491  .00027423  00000-0  17347-2 0  9990,2 52281  53.2173  40.9888 0001809  52.2447 104.8128 15.08834231  1303,6917.898,95.438,541.014,538.512,0.0
52281.0,STARLINK-3779,PAYLOAD,2022-06-30 22:00:00,15.088448199999998,0.0001994,53.2172,39.4948,47.179,121.4805,2.6685e-05,1.37e-06,0.0,0 STARLINK-3779,1 52281U 22041W   22181.91667824  .00000137  00000-0  26685-4 0  9996,2 52281  53.2172  39.4948 0001994  47.1790 121.4805 15.08844820 12125,6917.866,95.437,541.11,538.351,0.0
52281.0,STARLINK-3779,PAYLOAD,2022-07-01 14:00:01,15.088564600000002,0.0001814,53.2175,36.4995,53.897,137.968,0.00018646,2.682e-05,0.0,0 STARLINK-3779,1 52281U 22041W   22182.58334491  .00002682  00000-0  18646-3 0  9995,2 52281  53.2175  36.4995 0001814  53.8970 137.9680 15.08856460  1306,6917.83,95.437,540.95,538.44,0.0
52281.0,STARLINK-3779,PAYLOAD,2022-07-01 22:00:00,15.08836313,0.0001938,53.2174,35.0048,46.9309,156.5558,-0.00070293,-0.00011457,0.0,0 STARLINK-3779,1 52281U 22041W   22182.91667824 -.00011457  00000-0 -70293-3 0  9999,2 52281  53.2174  35.0048 0001938  46.9309 156.5558 15.08836313  1301,6917.892,95.438,541.097,538.4159999999998,0.0
52281.0,STARLINK-3779,PAYLOAD,2022-07-02 06:00:00,15.0885116,0.0001816,53.2172,33.5074,47.664,167.4054,-0.0021304,-0.00034044,0.0,0 STARLINK-3779,1 52281U 22041W   22183.25001157 -.00034044  00000-0 -21304-2 0  9993,2 52281  53.2172  33.5074 0001816  47.6640 167.4054 15.08851160 12325,6917.846,95.437,540.9680000000002,538.455,0.0
52281.0,STARLINK-3779,PAYLOAD,2022-07-02 14:00:01,15.08833624,0.0001892,53.2174,32.0179,47.2988,179.3564,0.00036747,5.564e-05,0.0,0 STARLINK-3779,1 52281U 22041W   22183.58334491  .00005564  00000-0  36747-3 0  9990,2 52281  53.2174  32.0179 0001892  47.2988 179.3564 15.08833624  1301,6917.9,95.438,541.0740000000002,538.456,0.0
52281.0,STARLINK-3779,PAYLOAD,2022-07-02 22:00:00,15.0884163,0.0001893,53.2173,30.5156,47.4157,190.8569,0.0011661,0.0001832,0.0,0 STARLINK-3779,1 52281U 22041W   22183.91667824  .00018320  00000-0  11661-2 0  9997,2 52281  53.2173  30.5156 0001893  47.4157 190.8569 15.08841630  1308,6917.875,95.437,541.05,538.431,0.0
52281.0,STARLINK-3779,PAYLOAD,2022-07-03 14:00:01,15.08836223,0.0001613,53.2173,27.5211,53.213,208.2717,0.00088125,0.00013763,0.0,0 STARLINK-3779,1 52281U 22041W   22184.58334491  .00013763  00000-0  88125-3 0  9998,2 52281  53.2173  27.5211 0001613  53.2130 208.2717 15.08836223  1303,6917.892,95.438,540.873,538.641,0.0
52281.0,STARLINK-3779,PAYLOAD,2022-07-03 22:00:00,15.08836327,0.0001763,53.2171,26.0265,46.0001,227.0781,-0.0019154,-0.0003064,0.0,0 STARLINK-3779,1 52281U 22041W   22184.91667824 -.00030640  00000-0 -19154-2 0  9994,2 52281  53.2171  26.0265 0001763  46.0001 227.0781 15.08836327  1302,6917.892,95.438,540.976,538.5369999999998,0.0
52281.0,STARLINK-3779,PAYLOAD,2022-07-04 14:00:01,15.0881916,0.0001553,53.217,23.0322,52.3388,243.8754,0.0003386,5.102e-05,0.0,0 STARLINK-3779,1 52281U 22041W   22185.58334491  .00005102  00000-0  33860-3 0  9993,2 52281  53.2170  23.0322 0001553  52.3388 243.8754 15.08819160  1309,6917.944,95.439,540.883,538.735,0.0
52281.0,STARLINK-3779,PAYLOAD,2022-07-04 22:00:00,15.0880774,0.0001751999999999,53.2169,21.5376,45.6736,262.1213,0.0018576,0.00029373,0.0,0 STARLINK-3779,1 52281U 22041W   22185.91667824  .00029373  00000-0  18576-2 0  9991,2 52281  53.2169  21.5376 0001752  45.6736 262.1213 15.08807740 12725,6917.979,95.44,541.056,538.632,0.0
52281.0,STARLINK-3779,PAYLOAD,2022-07-05 14:00:01,15.08840998,0.0001613,53.217,18.5432,52.6231,278.3176,0.00016772,2.382e-05,0.0,0 STARLINK-3779,1 52281U 22041W   22186.58334491  .00002382  00000-0  16772-3 0  9994,2 52281  53.2170  18.5432 0001613  52.6231 278.3176 15.08840998  1301,6917.877,95.437,540.8580000000002,538.626,0.0
52281.0,STARLINK-3779,PAYLOAD,2022-07-05 22:00:00,15.08820669,0.0001808,53.2169,17.0487,46.4062,296.1325,0.0021735,0.00034455,0.0,0 STARLINK-3779,1 52281U 22041W   22186.91667824  .00034455  00000-0  21735-2 0  9990,2 52281  53.2169  17.0487 0001808  46.4062 296.1325 15.08820669  1309,6917.939,95.439,541.055,538.554,0.0
52281.0,STARLINK-3779,PAYLOAD,2022-07-06 14:00:01,15.08856251,0.0001699,53.2172,14.0543,52.6239,313.0911,-0.00032792,-5.506e-05,0.0,0 STARLINK-3779,1 52281U 22041W   22187.58334491 -.00005506  00000-0 -32792-3 0  9998,2 52281  53.2172  14.0543 0001699  52.6239 313.0911 15.08856251 12977,6917.831,95.437,540.871,538.52,0.0
52281.0,STARLINK-3779,PAYLOAD,2022-07-06 22:00:00,15.08831501,0.0001871,53.2173,12.5596,46.5138,330.8181,0.002465,0.00039152,0.0,0 STARLINK-3779,1 52281U 22041W   22187.91667824  .00039152  00000-0  24650-2 0  9999,2 52281  53.2173  12.5596 0001871  46.5138 330.8181 15.08831501  1303,6917.906,95.438,541.066,538.477,0.0
52281.0,STARLINK-3779,PAYLOAD,2022-07-07 14:00:01,15.08849085,0.0001685,53.2176,9.5653,49.9519,350.5883,-0.00065387,-0.00010682,0.0,0 STARLINK-3779,1 52281U 22041W   22188.58334491 -.00010682  00000-0 -65387-3 0  9996,2 52281  53.2176   9.5653 0001685  49.9519 350.5883 15.08849085  1303,6917.853,95.437,540.883,538.552,0.0
52281.0,STARLINK-3779,PAYLOAD,2022-07-07 22:00:00,15.0882038,0.0001854,53.2176,8.0705,44.3512,7.7954,0.002847,0.00045289,0.0,0 STARLINK-3779,1 52281U 22041W   22188.91667824  .00045289  00000-0  28470-2 0  9992,2 52281  53.2176   8.0705 0001854  44.3512   7.7954 15.08820380 13181,6917.94,95.439,541.0880000000002,538.523,0.0
52281.0,STARLINK-3779,PAYLOAD,2022-07-08 14:00:01,15.08882338,0.0001789,53.2179,5.0762,50.9127,24.4591,-0.0022373,-0.0003576,0.0,0 STARLINK-3779,1 52281U 22041W   22189.58334491 -.00035760  00000-0 -22373-2 0  9998,2 52281  53.2179   5.0762 0001789  50.9127  24.4591 15.08882338  1301,6917.751,95.435,540.854,538.378,0.0
52281.0,STARLINK-3779,PAYLOAD,2022-07-08 22:00:01,15.08840315,0.0001931,53.2177,3.5812,45.4168,41.6506,0.0029167,0.00046438,0.0,0 STARLINK-3779,1 52281U 22041W   22189.91668981  .00046438  00000-0  29167-2 0  9999,2 52281  53.2177   3.5812 0001931  45.4168  41.6506 15.08840315 13333,6917.879,95.438,541.08,538.409,0.0
52281.0,STARLINK-3779,PAYLOAD,2022-07-09 06:00:00,15.08854111,0.0001686,53.2178,2.0831,48.4366,50.1786,-0.0033330999999999,-0.00052965,0.0,0 STARLINK-3779,1 52281U 22041W   22190.25001157 -.00052965  00000-0 -33331-2 0  9996,2 52281  53.2178   2.0831 0001686  48.4366  50.1786 15.08854111 13388,6917.837,95.437,540.869,538.536,0.0
52281.0,STARLINK-3779,PAYLOAD,2022-07-09 14:00:01,15.08833216,0.0001706999999999,53.2179,0.5871,49.5249,60.6742,-0.0042004,-0.00066509,0.0,0 STARLINK-3779,1 52281U 22041W   22190.58334491 -.00066509  00000-0 -42004-2 0  9998,2 52281  53.2179   0.5871 0001707  49.5249  60.6742 15.08833216  1302,6917.901,95.438,540.947,538.585,0.0
52281.0,STARLINK-3779,PAYLOAD,2022-07-09 20:00:01,15.08776855,0.0001882,53.2177,359.4661,46.3194,342.5567,0.001471,0.0002316,0.0,0 STARLINK-3779,1 52281U 22041W   22190.83334491  .00023160  00000-0  14710-2 0  9993,2 52281  53.2177 359.4661 0001882  46.3194 342.5567 15.08776855  1303,6918.073,95.442,541.24,538.636,0.0
52281.0,STARLINK-3779,PAYLOAD,2022-07-10 06:00:00,15.08774084,0.0001702,53.2175,357.594,50.61,82.6875,0.0033573,0.00053452,0.0,0 STARLINK-3779,1 52281U 22041W   22191.25001157  .00053452  00000-0  33573-2 0  9995,2 52281  53.2175 357.5940 0001702  50.6100  82.6875 15.08774084 13530,6918.081999999999,95.442,541.124,538.769,0.0
